CCSDS_OEM_VERS = 2.0
CREATION_DATE  = 2023-03-24T22:55:31.604
ORIGINATOR     = NASA/JSC/FOD/TOPO

META_START
OBJECT_NAME          = ISS
OBJECT_ID            = 1998-067-A
CENTER_NAME          = Earth
REF_FRAME            = EME2000
TIME_SYSTEM          = UTC
START_TIME           = 2023-03-24T18:41:29.004
USEABLE_START_TIME   = 2023-03-24T18:41:29.004
USEABLE_STOP_TIME    = 2023-04-08T18:41:29.004
STOP_TIME            = 2023-04-08T18:41:29.004
META_STOP

COMMENT Source: This file was produced by the TOPO office within FOD at JSC.
COMMENT Units are in kg and m^2
COMMENT MASS=473832.00
COMMENT DRAG_AREA=1618.40
COMMENT DRAG_COEFF=2.50
COMMENT SOLAR_RAD_AREA=0.00
COMMENT SOLAR_RAD_COEFF=0.00
COMMENT Orbits start at the ascending node epoch
COMMENT ISS first asc. node: EPOCH = 2023-03-24T18:57:36.042 $ ORBIT = 2869 $ LAN(DEG) = -79.71025
COMMENT ISS last asc. node : EPOCH = 2023-04-08T18:04:09.079 $ ORBIT = 3101 $ LAN(DEG) = -155.16623
COMMENT Begin sequence of events
COMMENT TRAJECTORY EVENT SUMMARY:
COMMENT 
COMMENT |       EVENT        |       TIG        | ORB |   DV    |   HA    |   HP    |
COMMENT |                    |       GMT        |     |   M/S   |   KM    |   KM    |
COMMENT |                    |                  |     |  (F/S)  |  (NM)   |  (NM)   |
COMMENT =============================================================================
COMMENT  68S Undocking         087:09:57:30.000             0.0     426.1     408.5
COMMENT                                                    (0.0)   (230.1)   (220.6)
COMMENT 
COMMENT  GMT 089 Cygnus Reb    089:16:48:00.000             1.1     425.4     408.5
COMMENT                                                    (3.6)   (229.7)   (220.6)
COMMENT 
COMMENT =============================================================================
COMMENT End sequence of events
2023-04-06T14:24:00.000 -5712.340816653500 702.692091437439 -3615.375293519940 2.05574934461709 -5.91781615454737 -4.40504742829700
2023-04-06T14:28:00.000 -5017.596650599170 -725.870727228945 -4528.121963938180 3.69809865126418 -5.91434676057205 -3.15502078173426
2023-04-06T14:32:00.000 -3958.931456799990 -2101.818326928840 -5111.534904865350 5.07015154189503 -5.48220886181660 -1.67739396189115
2023-04-06T14:36:00.000 -2613.473840073350 -3325.533232607140 -5323.620406901270 6.07372226067817 -4.65353417230165 -0.07940266090712
2023-04-06T14:40:00.000 -1078.829738113700 -4308.532736859630 -5149.239424467270 6.63727604565970 -3.48837351502717 1.52369911506915
2023-04-06T14:44:00.000 533.897064478322 -4979.678795580050 -4601.088109619920 6.72045075742577 -2.07040188110428 3.01651219117705
2023-04-06T14:48:00.000 2107.948369745250 -5290.213841989720 -3718.802000644180 6.31681336686303 -0.50141281536048 4.29122523117514
2023-04-06T14:52:00.000 3529.199130091850 -5217.312872207300 -2566.223093952120 5.45469089501030 1.10551086549384 5.25513569763970
2023-04-06T14:56:00.000 4694.372870100510 -4765.870870809100 -1226.938118699360 4.19572237539752 2.63382243034717 5.83745687146095
2023-04-06T15:00:00.000 5518.620810515840 -3968.325419983800 201.686249109726 2.63095838271612 3.97200092500493 5.99495372976004
2023-04-06T15:04:00.000 5941.842362478750 -2882.414029020670 1615.602415287580 0.87429827518804 5.02209016171788 5.71557080695927
2023-04-06T15:08:00.000 5933.183031338770 -1586.995951620980 2911.746464424150 -0.94597298483774 5.70717276609172 5.01955801317882
2023-04-06T15:12:00.000 5493.326043051000 -176.242350424335 3995.673501639280 -2.69705434024463 5.97739164809977 3.95797167311619
2023-04-06T15:16:00.000 4654.349436558840 1247.326538346080 4788.475828584630 -4.25172377112063 5.81335202076518 2.60836580958869
2023-04-06T15:20:00.000 3477.281284947510 2580.305467157780 5232.466110179380 -5.49736359091515 5.22707022232478 1.06892918070500
2023-04-06T15:24:00.000 2047.629626889890 3725.858698129950 5295.298799178540 -6.34378839713621 4.26093670081192 -0.54861005167347
2023-04-06T15:28:00.000 469.205426893555 4600.681199853640 4972.274604950120 -6.72953615282836 2.98462643401969 -2.12696954163956
2023-04-06T15:32:00.000 -1143.315866863120 5140.985795771240 4286.693695632930 -6.62607163253184 1.49019339236459 -3.55143181040688
2023-04-06T15:36:00.000 -2672.612750311510 5307.163194939250 3288.279911300020 -6.04009400981475 -0.11407321829799 -4.71784981811583
2023-04-06T15:40:00.000 -4007.234021656430 5086.801690679730 2049.702040094660 -5.01362406663946 -1.71119835269021 -5.54040575326348
2023-04-06T15:44:00.000 -5049.817815779340 4495.747266835250 661.339051377434 -3.62140400522673 -3.18413414650647 -5.95830429755067
2023-04-06T15:48:00.000 -5724.371980414960 3577.050598269370 -775.361264495117 -1.96564331939031 -4.42473667454385 -5.94076201644639
2023-04-06T15:52:00.000 -5981.956246394300 2397.787895392840 -2155.442143474130 -0.16809378279587 -5.34222572802159 -5.48949808171173
2023-04-06T15:56:00.000 -5804.262882682160 1044.031222034930 -3378.262635070260 1.63938880443511 -5.87008581135205 -4.63849958652924
2023-04-06T16:00:00.000 -5204.819899286520 -385.608825223653 -4354.942660235520 3.32508209847770 -5.97094486039450 -3.45106536449475
2023-04-06T16:04:00.000 -4227.755249350940 -1787.297015731590 -5014.793612990530 4.76724828024775 -5.63878126660946 -2.01445237991565
2023-04-06T16:08:00.000 -2944.355804803300 -3059.508421635400 -5310.275536088440 5.86257307811205 -4.89864011259030 -0.43311131435068
2023-04-06T16:12:00.000 -1447.797073925580 -4110.246247392840 -5220.236134149110 6.53295086972745 -3.80435681831652 1.17880650738394
2023-04-06T16:16:00.000 153.543343720362 -4863.511340687400 -4751.300350847700 6.73048499960149 -2.43462472424167 2.70527338710017
2023-04-06T16:20:00.000 1743.754158952510 -5264.654670656580 -3937.386821175890 6.44066257332413 -0.88769369887540 4.03616705571263
2023-04-06T16:24:00.000 3207.594216072990 -5284.322862469320 -2837.370263302440 5.68363632709494 0.72507290084927 5.07487307320065
2023-04-06T16:28:00.000 4438.758349563170 -4920.703537426620 -1530.979746958030 4.51336791555169 2.28689113132723 5.74531637033741
2023-04-06T16:32:00.000 5347.637589706040 -4199.826115459280 -113.134269892008 3.01426585806469 3.68395920696829 5.99784180623390
2023-04-06T16:36:00.000 5867.977219001520 -3173.814623912410 1312.938925350580 1.29535602328656 4.81404166129267 5.81338819435009
2023-04-06T16:40:00.000 5961.839526146040 -1917.131965400550 2643.309234422850 -0.51793565159907 5.59441639640555 5.20519889268801
2023-04-06T16:44:00.000 5622.411145616160 -521.111786623182 3781.021110887600 -2.29329664981335 5.96809892580910 4.21777967169834
2023-04-06T16:48:00.000 4874.461128641610 912.776080849198 4643.224936033710 -3.90153259060550 5.90810098833193 2.92337351681136
2023-04-06T16:52:00.000 3772.425242379890 2280.366276120940 5167.185216054620 -5.22609529085065 5.41900695883995 1.41628209206140
2023-04-06T16:56:00.000 2396.366141175290 3482.326739250390 5314.752369530770 -6.17118042134830 4.53620123335432 -0.19415625487234
2023-04-06T17:00:00.000 846.194577113426 4431.269664796120 5075.065242277450 -6.66814977070537 3.32328341160580 -1.79117917435402
2023-04-06T17:04:00.000 -765.482331989751 5058.045437397220 4465.366349141000 -6.68049275366744 1.86774412988176 -3.25875121201771
2023-04-06T17:08:00.000 -2321.441046510650 5316.775252366700 3529.836614694860 -6.20651983208972 0.27492482332527 -4.48973617870835
2023-04-06T17:12:00.000 -3708.317601762540 5188.298658748050 2336.519064956110 -5.27999558439880 -1.33920116199213 -5.39368502552229
2023-04-06T17:16:00.000 -4824.939439380090 4681.726799645830 972.453582677788 -3.96820272312110 -2.85645166892283 -5.90379026169510
2023-04-06T17:20:00.000 -5589.871989705850 3833.911519783740 -462.690674597113 -2.36734860070755 -4.16536378547737 -5.98236838055511
2023-04-06T17:24:00.000 -5947.527669423370 2706.752509623610 -1864.040240413670 -0.59517915482444 -5.17003762395884 -5.62400436286604
2023-04-06T17:28:00.000 -5872.256711898760 1382.551612221040 -3129.344901766280 1.21818125917465 -5.79743525147007 -4.85580742145332
2023-04-06T17:32:00.000 -5370.117969603180 -42.169058733245 -4166.555495237850 2.94033933447479 -6.00278980420426 -3.73505676984713
2023-04-06T17:36:00.000 -4478.207069209050 -1463.849000219680 -4900.524523727900 4.44663954224982 -5.77247066539285 -2.34433997478249
2023-04-06T17:40:00.000 -3261.711539782660 -2779.447498115940 -5278.319866904260 5.62898305733302 -5.12430056377825 -0.78501641443422
2023-04-06T17:44:00.000 -1809.036553118460 -3893.807147973440 -5272.849720274520 6.40303571199128 -4.10567316133254 0.83022102708962
2023-04-06T17:48:00.000 -225.424005157974 -4726.346664597480 -4884.654701019190 6.71356924936265 -2.78995245924816 2.38509146032878
2023-04-06T17:52:00.000 1374.501417916030 -5216.727317520390 -4141.829875174800 6.53806757568604 -1.27151844141358 3.76755250529741
2023-04-06T17:56:00.000 2874.830346460850 -5329.173299191640 -3098.092031767540 5.88848978671431 0.34044445414690 4.87737444790125
2023-04-06T18:00:00.000 4166.659424832870 -5055.159895573880 -1829.059384264460 4.81100318488001 1.92936517526293 5.63343112017942
2023-04-06T18:04:00.000 5156.012685736280 -4414.196446693660 -426.891695681269 3.38315596237899 3.37962713480552 5.97990873572066
2023-04-06T18:08:00.000 5770.788343404330 -3452.563577556300 1006.363928453680 1.70861199084514 4.58517585117725 5.89081246087384
2023-04-06T18:12:00.000 5966.161642527340 -2240.019516623580 2366.262759199320 -0.09043612493093 5.45771082601428 5.37233960619553
2023-04-06T18:16:00.000 5727.925538601090 -864.677179869853 3553.694930188080 -1.88268352272229 5.93354419666049 4.46242950126785
2023-04-06T18:20:00.000 5073.481206879090 573.501068486766 4482.175521285840 -3.53767996149341 5.97817329431886 3.22764107714232
2023-04-06T18:24:00.000 4050.480123278320 1970.020794060340 5084.131889761190 -4.93531017946002 5.58854517580957 1.75802622783206
2023-04-06T18:28:00.000 2733.278377631270 3223.452887407560 5315.759193492470 -5.97448453215535 4.79301135768712 0.16034888616181
